[
    {
        "Altitude(m)": 624792.80545283,
        "Argument of Periapsis(deg)": 0.0,
        "Eccentricity": 0.0,
        "Inclination(deg)": 60.0,
        "Latitude(deg)": -59.147188771061295,
        "Longitude(deg)": -65.97354883957826,
        "Mean Anomaly(deg)": -98.18179999999998,
        "RAAN(deg)": 140.0,
        "Satellite Name": "Test1 632",
        "Satellite Number": 632,
        "Semi-Major Axis(m)": 6980739.136638005,
        "Time(s)": 0
    },
    {
        "Altitude(m)": 624842.1972029549,
        "Argument of Periapsis(deg)": 0.00010418945913296404,
        "Eccentricity": 0.0,
        "Inclination(deg)": 60.0,
        "Latitude(deg)": -59.28927176669582,
        "Longitude(deg)": -64.84404116058869,
        "Mean Anomaly(deg)": -97.56169385453813,
        "RAAN(deg)": 139.99957995086024,
        "Satellite Name": "Test1 632",
        "Satellite Number": 632,
        "Semi-Major Axis(m)": 6980739.136638005,
        "Time(s)": 10
    }
]